0158P         2023 03 30.7304  4.724030  0.017171  237.1221  136.5333    7.8683  20190514   9.0  4.0  158P/Kowal-LINEAR                                        MPC 10028
0159P         2018 05 22.4809  3.624737  0.381483    4.7103   55.0218   23.4616  20190514   8.8  4.0  159P/LONEOS                                              MPC 75721
0160P         2019 12  2.3214  1.787432  0.526370   12.6221  333.3810   15.6121  20190514  15.5  2.0  160P/LINEAR                                              MPC102101
0161P         2026 11 29.1148  1.278622  0.834529   46.9094    1.3665   95.6793  20190514   8.5  6.0  161P/Hartley-IRAS                                        MPC 75721
0162P         2020 12  7.5835  1.286397  0.583628  357.0962   31.0256   27.6119  20190514  13.5  4.0  162P/Siding Spring                                       MPC105242
0163P         2019 08  5.2520  2.066611  0.451994  349.7055  102.0918   12.7077  20190514  14.5  4.0  163P/NEAT                                                MPC102101
0164P         2018 05 31.3604  1.685000  0.539631  325.9044   88.3071   16.2532  20190514  11.0  4.0  164P/Christensen                                         MPC106349
0165P         2000 05 27.6176  6.893783  0.615254  126.3814    0.6579   15.9022  20190514  11.5  2.0  165P/LINEAR                                              MPC 75721
0166P         2002 04 30.1769  8.576748  0.380735  321.5688   64.5353   15.3579  20190514   5.5  4.0  166P/NEAT                                                MPC 75722
0167P         2001 04 25.2880 11.746286  0.273293  343.8344  295.6782   19.1177  20190514   9.5  2.0  167P/CINEOS                                              MPC 75722
0168P         2019 08  5.1464  1.358895  0.620497   14.9948  355.4719   21.6117  20190514  19.5  4.0  168P/Hergenrother                                        MPC102101
0169P         2018 04 29.5613  0.603760  0.767947  218.0863  176.0854   11.2948  20190514  16.0  2.0  169P/NEAT                                                MPC 94676
0170P         2023 04 22.8971  2.925457  0.303151  225.7150  142.9174   10.1248  20190514  12.0  4.0  170P/Christensen                                         MPC 89012
0171P         2019 01 13.6987  1.772296  0.501893  347.1421  101.6962   21.9337  20190514  14.4  4.0  171P/Spahr                                               MPC102102
0172P         2017 03 13.7102  3.339088  0.206577  209.2690   30.8914   11.2363  20190514  13.0  4.0  172P/Yeung                                               MPC 93588
0173P         2021 12 19.0295  4.212692  0.260583   29.5001  100.4035   16.4968  20190514   7.5  4.0  173P/Mueller                                             MPC 75722
0174P         2015 04 21.7285  5.810986  0.456485  162.8135  173.3014    4.3434  20190514   6.7  2.0  174P/Echeclus                                            MPC 92985
0175P         2019 09 30.7745  1.946327  0.432186   56.1873  123.5331    6.0772  20190514  14.0  4.0  175P/Hergenrother                                        MPC102102
0176P         2017 03 11.3922  2.577951  0.192800   35.2359  345.8781    0.2347  20190514  15.1  2.0  176P/LINEAR                                              MPC 88331
0177P         2006 08 26.2521  1.100915  0.954795   60.1922  272.3574   31.3368  20190514  15.0  4.0  177P/Barnard                                             MPC 75723
0178P         2020 07 16.3899  1.883219  0.481880  297.6599  102.8718   11.0865  20190514  13.5  4.0  178P/Hug-Bell                                            MPC105242
0179P         2022 05 26.8997  4.131042  0.305472  296.2902  115.5205   19.8930  20190514   2.5  8.0  179P/Jedicke                                             MPC 75723
0180P         2015 12 11.9077  2.493796  0.353866   94.9298   84.5537   16.8685  20190514  11.0  4.0  180P/NEAT                                                MPC 10028
0181P         2022 01  9.2748  1.160047  0.700216  336.2794   35.4113   17.4851  20190514  11.5  4.0  181P/Shoemaker-Levy                                      MPC 89012
0182P         2017 04 11.7738  1.004958  0.660328   53.7816   72.7910   16.2471  20190514  18.0  4.0  182P/LONEOS                                              MPC 88331
0183P         2017 11 17.5104  3.875629  0.139418  162.1606    5.7649   18.7105  20190514  12.5  2.0  183P/Korlevic-Juric                                      MPC110085
0184P         2020 10 26.1389  1.698475  0.551903  186.4539  173.4142    4.5760  20190514  13.5  4.0  184P/Lovas                                               MPC105242
0185P         2018 01 27.6070  0.933851  0.698796  181.9059  214.0986   13.9942  20190514  12.0  7.4  185P/Petriew                                             MPC109593
0186P         2019 05  4.9871  4.389470  0.123810  283.8106  327.0601   28.4106  20190514   7.5  4.0  186P/Garradd                                             MPC 10028
0187P         2018 05 22.4743  3.879316  0.153556  132.7619  109.9185   13.6297  20190514   9.0  4.0  187P/LINEAR                                              MPC104795
0188P         2017 02 16.6731  2.562743  0.414737   26.6574  358.9604   10.5141  20190514  11.5  4.0  188P/LINEAR-Mueller                                      MPC106349
0189P         2017 08  6.0959  1.212833  0.588523   16.2343  281.7405   20.0722  20190514  19.0  4.0  189P/NEAT                                                MPC106349
0190P         2016 04  7.2810  2.032818  0.520300   50.3438  335.5564    2.1732  20190514  13.0  4.0  190P/Mueller                                             MPC 75724
0191P         2021 03 17.5103  2.218640  0.390750  283.9625   98.3021    8.8241  20190514  13.0  4.0  191P/McNaught                                            MPC 92277
0192P         2024 05 26.2305  1.475712  0.772236  312.8703   51.6663   24.5171  20190514  15.0  4.0  192P/Shoemaker-Levy                                      MPC 75724
0193P         2021 08 26.0968  2.166682  0.393823    8.3032  335.1955   10.6872  20190514  14.0  4.0  193P/LINEAR-NEAT                                         MPC 91618
0194P         2016 03  2.0323  1.691480  0.576166  130.6298  351.8338   11.1426  20190514  16.0  4.0  194P/LINEAR                                              MPC 98566
0195P         2025 07 30.6839  4.456328  0.313710  249.6270  243.0846   36.3430  20190514   8.5  4.0  195P/Hill                                                MPC 75724
0196P         2022 10 30.5476  2.165485  0.429313   12.4099   24.2392   19.3217  20190514  13.5  4.0  196P/Tichy                                               MPC 92985
0197P         2018 01 28.8624  1.060334  0.630104  188.7114   66.3933   25.5562  20190514  16.5  2.0  197P/LINEAR                                              MPC 94676
0198P         2018 12 13.8849  2.005890  0.443186   69.3050  358.2596    1.3381  20190514  12.5  4.0  198P/ODAS                                                MPC 65937
0199P         2023 08  7.4254  2.917257  0.505786  191.4876   92.4005   24.9357  20190514  10.0  4.0  199P/Shoemaker                                           MPC 75725
0200P         2019 07 28.4782  3.297234  0.331652  133.9752  234.8014   12.1058  20190514  12.6  4.0  200P/Larsen                                              MPC111774
0201P         2021 05 21.7186  1.225528  0.638888   31.6786   28.8164    6.2396  20190514  14.0  4.0  201P/LONEOS                                              MPC 93588
0202P         2016 06 21.7475  2.614515  0.323266  262.2786  192.1627    2.1154  20190514  13.5  4.0  202P/Scotti                                              MPC103849
0203P         2020 03  5.3096  3.199495  0.314768  154.9239  290.3534    2.9732  20190514  14.5  2.0  203P/Korlevic                                            MPC112393
0204P         2015 12 13.0719  1.907552  0.476245  354.8384  108.8304    6.6182  20190514  14.0  4.0  204P/LINEAR-NEAT                                         MPC 98566
0205P         2022 01 13.7854  1.533120  0.567392  154.1617  179.6008   15.2935  20190514  13.0  4.0  205P/Giacobini                                           MPC 98566
0206P         2021 03  4.4495  1.563152  0.551674  189.3849  202.5006   33.6827  20190514  19.0  4.0  206P/Barnard-Boattini                                    MPC 75725
0207P         2016 07  1.1273  0.932394  0.758993  271.3111  200.3645   10.1535  20190514  16.0  4.0  207P/NEAT                                                MPC 75725
0208P         2016 07  1.7557  2.540197  0.372655  310.3774   36.3931    4.4080  20190514  12.5  4.0  208P/McMillan                                            MPC101100
0209P         2019 06 12.8067  0.967504  0.673269  152.5005   62.7714   21.2586  20190514  17.2  2.0  209P/LINEAR                                              MPC 90771
0210P         2020 04  7.9600  0.528985  0.833067  345.8626   93.8317   10.2595  20190514  15.0  4.0  210P/Christensen                                         MPC105242
0211P         2016 01 26.8575  2.340116  0.341176    4.1521  117.1311   18.9121  20190514  12.5  4.0  211P/Hill                                                MPC 96868
0212P         2016 09 11.2219  1.627745  0.582983   14.8528   98.7014   22.5806  20190514  17.0  2.0  212P/NEAT                                                MPC104795
0213P         2017 09 24.5352  1.982943  0.407878    5.5815  311.3065   10.3790  20190514  10.6  4.0  213P/Van Ness                                            MPC110085
0214P         2022 09 26.0644  1.856195  0.486465  190.3055  348.2728   15.1931  20190514  13.0  4.0  214P/LINEAR                                              MPC 92986
0215P         2019 11 17.3383  3.604913  0.168224  261.9098   56.7064   10.5825  20190514   9.1  4.0  215P/NEAT                                                MPC102102
